XM-5                    
1 37185U 10053A   26063.48864072 -.00000034  00000+0  00000+0 0  9995
2 37185   0.0669 274.6489 0003260 252.8420  55.4355  1.00270210 56439
BSAT-3B                 
1 37207U 10056B   26063.84615947 -.00000360  00000+0  00000+0 0  9990
2 37207   0.0836 248.1360 0001786  35.6073 293.2912  1.00270385 51053
BEIDOU-2 G4             
1 37210U 10057A   26063.82581160 -.00000121  00000+0  00000+0 0  9997
2 37210   3.3879  69.5480 0009020 210.9407 339.3787  1.00272165 56242
SKYTERRA 1              
1 37218U 10061A   26063.06561393 -.00000128  00000+0  00000+0 0  9999
2 37218   4.9016  50.9140 0001603 293.9262  99.2594  1.00271469 56149
HYLAS 1                 
1 37237U 10065A   26063.38239013  .00000043  00000+0  00000+0 0  9995
2 37237   5.3776  74.3063 0003089 330.2191 254.5655  1.00650076  5837
INTELSAT 17 (IS-17)     
1 37238U 10065B   26063.65095530 -.00000012  00000+0  00000+0 0  9997
2 37238   0.0187 197.9066 0002426 151.6096 113.2049  1.00272648 52198
EUTELSAT KA-SAT 9A      
1 37258U 10069A   26063.37683795  .00000050  00000+0  00000+0 0  9999
2 37258   0.0565 356.5485 0002587 146.5926 163.6445  1.00273124 42953
HISPASAT 30W-5          
1 37264U 10070A   26063.39905791 -.00000228  00000+0  00000+0 0  9991
2 37264   0.0141 159.5691 0003286 204.3922 271.8207  1.00270070 52132
KOREASAT 6              
1 37265U 10070B   26063.68655911 -.00000123  00000+0  00000+0 0  9994
2 37265   0.0346 262.5661 0002423  71.3665 235.5166  1.00269442 55720
ELEKTRO-L 1 (GOMS 2)    
1 37344U 11001A   26062.92921647 -.00000273  00000+0  00000+0 0  9991
2 37344   9.4482  55.5616 0003277   9.9871   1.0142  1.00174519 55434
BEIDOU-2 IGSO-3         
1 37384U 11013A   26058.90884667 -.00000154  00000+0  00000+0 0  9999
2 37384  62.2642  41.1818 0035029 190.8154 358.7681  1.00294022 54567
INTELSAT 28 (IS-28)     
1 37392U 11016A   26063.45322368 -.00000236  00000+0  00000+0 0  9993
2 37392   1.5355  83.9838 0004655 258.1783 311.4864  1.00272423 52238
YAHSAT 1A               
1 37393U 11016B   26063.30044475  .00000090  00000+0  00000+0 0  9995
2 37393   0.0104 131.2011 0003351 218.7759 332.7073  1.00269069 41353
SBIRS GEO-1 (USA 230)   
1 37481U 11019A   26063.09594741  .00000090  00000+0  00000+0 0  9998
2 37481   4.3050  53.0927 0002293 290.1321 264.9657  1.00272141 54340
TELSTAR 14R             
1 37602U 11021A   26063.07324062 -.00000293  00000+0  00000+0 0  9997
2 37602   0.0365 269.7706 0002427  79.4879 135.9193  1.00272792 54785
GSAT-8                  
1 37605U 11022A   26063.19072456  .00000073  00000+0  00000+0 0  9996
2 37605   1.8598  83.1608 0007372 214.9335 347.5527  1.00272189 52163
ST-2                    
1 37606U 11022B   26063.82340941 -.00000220  00000+0  00000+0 0  9999
2 37606   0.0221 232.1831 0001953 126.8805 187.9112  1.00268278 54234
